STARLINK-37189          
1 68603U 26073B   26110.60531538  .00240941  00000+0  12195-2 0  9991
2 68603  97.2848 308.4283 0001644  85.4367 274.7089 15.80900459  2155
STARLINK-37130          
1 68604U 26073C   26110.54459242 -.00092473  00000+0 -62412-3 0  9991
2 68604  97.2850 308.3534 0002206  81.5814 278.5701 15.75250030  2145
STARLINK-37131          
1 68605U 26073D   26110.60381263  .00225453  00000+0  11435-2 0  9998
2 68605  97.2847 308.4301 0001466  73.0118 287.1311 15.80894935  2153
STARLINK-37253          
1 68606U 26073E   26110.60306164  .00252198  00000+0  12749-2 0  9991
2 68606  97.2849 308.4311 0001390  72.8258 287.3163 15.80898927  2157
STARLINK-37246          
1 68607U 26073F   26110.55059778  .00106361  00000+0  70433-3 0  9997
2 68607  97.2849 308.3494 0001708  68.9978 291.1470 15.75215325  2149
STARLINK-37243          
1 68608U 26073G   26110.60155832  .00233607  00000+0  11837-2 0  9998
2 68608  97.2847 308.4333 0001057  63.0192 297.1184 15.80895339  2156
STARLINK-37250          
1 68609U 26073H   26110.60080738  .00231964  00000+0  11754-2 0  9993
2 68609  97.2848 308.4338 0001622  82.4941 277.6511 15.80897813  2154
STARLINK-37105          
1 68610U 26073J   26109.84063488 -.00164432  00000+0 -91096-3 0  9997
2 68610  97.2846 307.6322 0001821 340.5031  19.6166 15.79903753  2033
STARLINK-37177          
1 68611U 26073K   26110.59930419  .00249979  00000+0  12639-2 0  9992
2 68611  97.2845 308.4364 0001753  88.6303 271.5166 15.80900743  2154
STARLINK-36386          
1 68612U 26073L   26110.59855296  .00255455  00000+0  12906-2 0  9995
2 68612  97.2845 308.4369 0001687  86.1833 273.9628 15.80902219  2156
STARLINK-36187          
1 68613U 26073M   26110.59780073  .00271241  00000+0  13671-2 0  9997
2 68613  97.2845 308.4381 0001762  73.5972 286.5489 15.80913247  2157
STARLINK-37170          
1 68614U 26073N   26110.59704953  .00212454  00000+0  10796-2 0  9997
2 68614  97.2843 308.4385 0001546  97.5686 262.5757 15.80886341  2154
STARLINK-37176          
1 68615U 26073P   26110.59629753  .00261490  00000+0  13197-2 0  9994
2 68615  97.2844 308.4393 0001810 117.6834 242.4618 15.80910332  2159
STARLINK-37152          
1 68616U 26073Q   26110.59562188 -.00516740  00000+0 -29344-2 0  9997
2 68616  97.2844 308.4402 0001294  84.0840 276.0575 15.80253752  2152
STARLINK-37186          
1 68617U 26073R   26110.53149521  .00236654  00000+0  11990-2 0  9993
2 68617  97.2845 308.3741 0001461 102.5675 257.5756 15.80888597  2142
STARLINK-37179          
1 68618U 26073S   26110.53074364  .00238847  00000+0  12098-2 0  9992
2 68618  97.2844 308.3751 0001698 105.5575 254.5880 15.80889808  2148
