[{"OBJECT_NAME":"STARLINK-37189","OBJECT_ID":"2026-073B","EPOCH":"2026-04-20T14:31:39.248832","MEAN_MOTION":15.80900459,"ECCENTRICITY":0.00016449,"INCLINATION":97.2848,"RA_OF_ASC_NODE":308.4283,"ARG_OF_PERICENTER":85.4367,"MEAN_ANOMALY":274.7089,"EPHEMERIS_TYPE":0,"CLASSIFICATION_TYPE":"U","NORAD_CAT_ID":68603,"ELEMENT_SET_NO":999,"REV_AT_EPOCH":215,"BSTAR":0.0012194797,"MEAN_MOTION_DOT":0.00240941,"MEAN_MOTION_DDOT":0},{"OBJECT_NAME":"STARLINK-37130","OBJECT_ID":"2026-073C","EPOCH":"2026-04-20T13:04:12.785088","MEAN_MOTION":15.7525003,"ECCENTRICITY":0.00022069,"INCLINATION":97.285,"RA_OF_ASC_NODE":308.3534,"ARG_OF_PERICENTER":81.5814,"MEAN_ANOMALY":278.5701,"EPHEMERIS_TYPE":0,"CLASSIFICATION_TYPE":"U","NORAD_CAT_ID":68604,"ELEMENT_SET_NO":999,"REV_AT_EPOCH":214,"BSTAR":-0.00062412143,"MEAN_MOTION_DOT":-0.00092473,"MEAN_MOTION_DDOT":0},{"OBJECT_NAME":"STARLINK-37131","OBJECT_ID":"2026-073D","EPOCH":"2026-04-20T14:29:29.411232","MEAN_MOTION":15.80894935,"ECCENTRICITY":0.00014663,"INCLINATION":97.2847,"RA_OF_ASC_NODE":308.4301,"ARG_OF_PERICENTER":73.0118,"MEAN_ANOMALY":287.1311,"EPHEMERIS_TYPE":0,"CLASSIFICATION_TYPE":"U","NORAD_CAT_ID":68605,"ELEMENT_SET_NO":999,"REV_AT_EPOCH":215,"BSTAR":0.0011434718,"MEAN_MOTION_DOT":0.00225453,"MEAN_MOTION_DDOT":0},{"OBJECT_NAME":"STARLINK-37253","OBJECT_ID":"2026-073E","EPOCH":"2026-04-20T14:28:24.525696","MEAN_MOTION":15.80898927,"ECCENTRICITY":0.00013901,"INCLINATION":97.2849,"RA_OF_ASC_NODE":308.4311,"ARG_OF_PERICENTER":72.8258,"MEAN_ANOMALY":287.3163,"EPHEMERIS_TYPE":0,"CLASSIFICATION_TYPE":"U","NORAD_CAT_ID":68606,"ELEMENT_SET_NO":999,"REV_AT_EPOCH":215,"BSTAR":0.0012748557,"MEAN_MOTION_DOT":0.00252198,"MEAN_MOTION_DDOT":0},{"OBJECT_NAME":"STARLINK-37246","OBJECT_ID":"2026-073F","EPOCH":"2026-04-20T13:12:51.648192","MEAN_MOTION":15.75215325,"ECCENTRICITY":0.00017081,"INCLINATION":97.2849,"RA_OF_ASC_NODE":308.3494,"ARG_OF_PERICENTER":68.9978,"MEAN_ANOMALY":291.147,"EPHEMERIS_TYPE":0,"CLASSIFICATION_TYPE":"U","NORAD_CAT_ID":68607,"ELEMENT_SET_NO":999,"REV_AT_EPOCH":214,"BSTAR":0.00070432719,"MEAN_MOTION_DOT":0.00106361,"MEAN_MOTION_DDOT":0},{"OBJECT_NAME":"STARLINK-37243","OBJECT_ID":"2026-073G","EPOCH":"2026-04-20T14:26:14.638848","MEAN_MOTION":15.80895339,"ECCENTRICITY":0.00010574,"INCLINATION":97.2847,"RA_OF_ASC_NODE":308.4333,"ARG_OF_PERICENTER":63.0192,"MEAN_ANOMALY":297.1184,"EPHEMERIS_TYPE":0,"CLASSIFICATION_TYPE":"U","NORAD_CAT_ID":68608,"ELEMENT_SET_NO":999,"REV_AT_EPOCH":215,"BSTAR":0.0011836656,"MEAN_MOTION_DOT":0.00233607,"MEAN_MOTION_DDOT":0},{"OBJECT_NAME":"STARLINK-37250","OBJECT_ID":"2026-073H","EPOCH":"2026-04-20T14:25:09.757632","MEAN_MOTION":15.80897813,"ECCENTRICITY":0.00016227,"INCLINATION":97.2848,"RA_OF_ASC_NODE":308.4338,"ARG_OF_PERICENTER":82.4941,"MEAN_ANOMALY":277.6511,"EPHEMERIS_TYPE":0,"CLASSIFICATION_TYPE":"U","NORAD_CAT_ID":68609,"ELEMENT_SET_NO":999,"REV_AT_EPOCH":215,"BSTAR":0.0011754324,"MEAN_MOTION_DOT":0.00231964,"MEAN_MOTION_DDOT":0},{"OBJECT_NAME":"STARLINK-37105","OBJECT_ID":"2026-073J","EPOCH":"2026-04-19T20:10:30.853632","MEAN_MOTION":15.79903753,"ECCENTRICITY":0.00018214,"INCLINATION":97.2846,"RA_OF_ASC_NODE":307.6322,"ARG_OF_PERICENTER":340.5031,"MEAN_ANOMALY":19.6166,"EPHEMERIS_TYPE":0,"CLASSIFICATION_TYPE":"U","NORAD_CAT_ID":68610,"ELEMENT_SET_NO":999,"REV_AT_EPOCH":203,"BSTAR":-0.00091096105,"MEAN_MOTION_DOT":-0.00164432,"MEAN_MOTION_DDOT":0},{"OBJECT_NAME":"STARLINK-37177","OBJECT_ID":"2026-073K","EPOCH":"2026-04-20T14:22:59.882016","MEAN_MOTION":15.80900743,"ECCENTRICITY":0.0001753,"INCLINATION":97.2845,"RA_OF_ASC_NODE":308.4364,"ARG_OF_PERICENTER":88.6303,"MEAN_ANOMALY":271.5166,"EPHEMERIS_TYPE":0,"CLASSIFICATION_TYPE":"U","NORAD_CAT_ID":68611,"ELEMENT_SET_NO":999,"REV_AT_EPOCH":215,"BSTAR":0.0012638551,"MEAN_MOTION_DOT":0.00249979,"MEAN_MOTION_DDOT":0},{"OBJECT_NAME":"STARLINK-36386","OBJECT_ID":"2026-073L","EPOCH":"2026-04-20T14:21:54.975744","MEAN_MOTION":15.80902219,"ECCENTRICITY":0.00016874,"INCLINATION":97.2845,"RA_OF_ASC_NODE":308.4369,"ARG_OF_PERICENTER":86.1833,"MEAN_ANOMALY":273.9628,"EPHEMERIS_TYPE":0,"CLASSIFICATION_TYPE":"U","NORAD_CAT_ID":68612,"ELEMENT_SET_NO":999,"REV_AT_EPOCH":215,"BSTAR":0.0012906258,"MEAN_MOTION_DOT":0.00255455,"MEAN_MOTION_DDOT":0},{"OBJECT_NAME":"STARLINK-36187","OBJECT_ID":"2026-073M","EPOCH":"2026-04-20T14:20:49.983072","MEAN_MOTION":15.80913247,"ECCENTRICITY":0.00017625,"INCLINATION":97.2845,"RA_OF_ASC_NODE":308.4381,"ARG_OF_PERICENTER":73.5972,"MEAN_ANOMALY":286.5489,"EPHEMERIS_TYPE":0,"CLASSIFICATION_TYPE":"U","NORAD_CAT_ID":68613,"ELEMENT_SET_NO":999,"REV_AT_EPOCH":215,"BSTAR":0.0013671461,"MEAN_MOTION_DOT":0.00271241,"MEAN_MOTION_DDOT":0},{"OBJECT_NAME":"STARLINK-37170","OBJECT_ID":"2026-073N","EPOCH":"2026-04-20T14:19:45.079392","MEAN_MOTION":15.80886341,"ECCENTRICITY":0.00015464,"INCLINATION":97.2843,"RA_OF_ASC_NODE":308.4385,"ARG_OF_PERICENTER":97.5686,"MEAN_ANOMALY":262.5757,"EPHEMERIS_TYPE":0,"CLASSIFICATION_TYPE":"U","NORAD_CAT_ID":68614,"ELEMENT_SET_NO":999,"REV_AT_EPOCH":215,"BSTAR":0.0010796261,"MEAN_MOTION_DOT":0.00212454,"MEAN_MOTION_DDOT":0},{"OBJECT_NAME":"STARLINK-37176","OBJECT_ID":"2026-073P","EPOCH":"2026-04-20T14:18:40.106592","MEAN_MOTION":15.80910332,"ECCENTRICITY":0.00018109,"INCLINATION":97.2844,"RA_OF_ASC_NODE":308.4393,"ARG_OF_PERICENTER":117.6834,"MEAN_ANOMALY":242.4618,"EPHEMERIS_TYPE":0,"CLASSIFICATION_TYPE":"U","NORAD_CAT_ID":68615,"ELEMENT_SET_NO":999,"REV_AT_EPOCH":215,"BSTAR":0.0013196865,"MEAN_MOTION_DOT":0.0026149,"MEAN_MOTION_DDOT":0},{"OBJECT_NAME":"STARLINK-37152","OBJECT_ID":"2026-073Q","EPOCH":"2026-04-20T14:17:41.730432","MEAN_MOTION":15.80253752,"ECCENTRICITY":0.00012948,"INCLINATION":97.2844,"RA_OF_ASC_NODE":308.4402,"ARG_OF_PERICENTER":84.084,"MEAN_ANOMALY":276.0575,"EPHEMERIS_TYPE":0,"CLASSIFICATION_TYPE":"U","NORAD_CAT_ID":68616,"ELEMENT_SET_NO":999,"REV_AT_EPOCH":215,"BSTAR":-0.0029343875,"MEAN_MOTION_DOT":-0.0051674,"MEAN_MOTION_DDOT":0},{"OBJECT_NAME":"STARLINK-37186","OBJECT_ID":"2026-073R","EPOCH":"2026-04-20T12:45:21.186144","MEAN_MOTION":15.80888597,"ECCENTRICITY":0.00014617,"INCLINATION":97.2845,"RA_OF_ASC_NODE":308.3741,"ARG_OF_PERICENTER":102.5675,"MEAN_ANOMALY":257.5756,"EPHEMERIS_TYPE":0,"CLASSIFICATION_TYPE":"U","NORAD_CAT_ID":68617,"ELEMENT_SET_NO":999,"REV_AT_EPOCH":214,"BSTAR":0.0011990423,"MEAN_MOTION_DOT":0.00236654,"MEAN_MOTION_DDOT":0},{"OBJECT_NAME":"STARLINK-37179","OBJECT_ID":"2026-073S","EPOCH":"2026-04-20T12:44:16.250496","MEAN_MOTION":15.80889808,"ECCENTRICITY":0.00016981,"INCLINATION":97.2844,"RA_OF_ASC_NODE":308.3751,"ARG_OF_PERICENTER":105.5575,"MEAN_ANOMALY":254.588,"EPHEMERIS_TYPE":0,"CLASSIFICATION_TYPE":"U","NORAD_CAT_ID":68618,"ELEMENT_SET_NO":999,"REV_AT_EPOCH":214,"BSTAR":0.0012097693,"MEAN_MOTION_DOT":0.00238847,"MEAN_MOTION_DDOT":0}]
